IRIDIUM 171             
1 43929U 19002H   25172.87669988  .00000096  00000+0  27121-4 0  9998
2 43929  86.3995 144.4667 0002073  79.3777 280.7652 14.34218364337316
IRIDIUM 170             
1 43930U 19002J   25172.86836632  .00000669  00000+0  10213-3 0  9990
2 43930  86.6109 144.2236 0002846  82.3473 277.8067 14.72251108346247
IRIDIUM 167             
1 43931U 19002K   25172.45174710  .00000091  00000+0  25561-4 0  9990
2 43931  86.3985 144.3971 0002326  75.0096 285.1357 14.34218049337257
IRIDIUM 181             
1 56726U 23068S   25172.52428874  .00000278  00000+0  76496-4 0  9994
2 56726  86.4522 207.4225 0001802  86.7503 273.3904 14.43310164110419
IRIDIUM 177             
1 56727U 23068T   25172.33000301  .00000912  00000+0  11646-3 0  9995
2 56727  86.1980 140.1627 0002480  83.6434 276.5069 14.80229477112984
IRIDIUM 174             
1 56728U 23068U   25172.38022377  .00000685  00000+0  10468-3 0  9996
2 56728  86.6118 144.5381 0002885  96.9314 263.2231 14.72256420112939
IRIDIUM 178             
1 56729U 23068V   25172.72470076  .00000386  00000+0  47286-4 0  9995
2 56729  86.6573 175.9395 0002393  95.1113 265.0381 14.80233169113043
IRIDIUM 179             
1 56730U 23068W   25172.31372839  .00000384  00000+0  47030-4 0  9995
2 56730  86.6808 183.9935 0002653  88.9907 271.1618 14.80238269112984
